PERSEUS-M1              
1 40039U 14033AF  26168.83898993  .00001267  00000+0  11943-3 0  9993
2 40039  97.9641 112.9814 0010261 298.8550  61.1639 14.95632448650730
POLYITAN-1              
1 40042U 14033AJ  26169.03120981  .00015610  00000+0  48715-3 0  9999
2 40042  98.0938 195.3722 0008691 138.9044 221.2853 15.33281524653721
TIGRISAT                
1 40043U 14033AK  26168.99172080  .00001648  00000+0  19441-3 0  9991
2 40043  97.7830 318.9847 0050574  72.6516 288.0222 14.85165216645744
AEROCUBE 6A             
1 40045U 14033AM  26168.95864694  .00004342  00000+0  36604-3 0  9992
2 40045  97.7248 335.8988 0038862  15.4901 344.7501 14.98116424646733
AEROCUBE 6B             
1 40046U 14033AN  26169.02695227  .00003806  00000+0  30977-3 0  9997
2 40046  97.7246 335.7585 0038243   6.4991 353.6720 14.99576366646880
CANX-4                  
1 40055U 14034C   26169.09760200  .00000721  00000+0  99764-4 0  9992
2 40055  98.3121  44.4441 0013098  14.2311 345.9267 14.81266161644662
CANX-5                  
1 40056U 14034D   26169.09602465  .00000724  00000+0  10012-3 0  9992
2 40056  98.3122  44.4861 0013108  14.4282 345.7301 14.81283401635473
UKUBE-1                 
1 40074U 14037F   26168.96158025  .00007654  00000+0  43097-3 0  9996
2 40074  98.4232 172.3147 0002640 131.7969 228.3486 15.13564400648671
BRITE-PL2 (HEWELIUSZ)   
1 40119U 14049B   26169.24354178  .00001570  00000+0  15025-3 0  9999
2 40119  97.9099 281.2515 0015313 105.3590 254.9323 14.94596501641609
AEROCUBE 5C             
1 40965U 15058B   26168.50608647  .00001718  00000+0  16077-3 0  9992
2 40965  64.7676 261.5986 0130756  63.1470 298.2940 14.91454811365705
AEROCUBE 7              
1 40966U 15058C   26169.17012166  .00002406  00000+0  20046-3 0  9998
2 40966  64.7616 241.7372 0120506  61.3138 300.0027 14.95730374366100
FOX-1A (AO-85)          
1 40967U 15058D   26169.29160428  .00001807  00000+0  17049-3 0  9990
2 40967  64.7760 275.5520 0130538  56.1547 305.1908 14.90973898113731
SINOD-D 1               
1 40968U 15058E   26169.21480976  .00002423  00000+0  20145-3 0  9992
2 40968  64.7751 255.6947 0119097  52.6726 308.5169 14.95910862116816
SNAP-3 ALICE            
1 40970U 15058G   26169.19935594  .00098847  00000+0  11696-2 0  9998
2 40970  64.7502 100.4327 0027870  12.3049 347.8772 15.60262488117049
LMRST-SAT               
1 40971U 15058H   26169.31428061  .00001659  00000+0  15881-3 0  9995
2 40971  64.7763 271.8213 0132145  58.1750 303.2148 14.90593890113725
SNAP-3 EDDIE            
1 40972U 15058J   26169.18857789  .00101641  00000+0  11443-2 0  9995
2 40972  64.7423  91.1867 0027483  16.2620 343.9402 15.61552265119186
PROPCUBE 3              
1 40973U 15058K   26169.21324536  .00002045  00000+0  17788-3 0  9996
2 40973  64.7682 249.3302 0124096  59.5125 301.8173 14.94261722114951
BISONSAT                
1 40974U 15058L   26169.08852454  .00009304  00000+0  45210-3 0  9993
2 40974  64.7579 170.7303 0079122  46.8908 313.8799 15.16206145115751
SNAP-3 JIMI             
1 40975U 15058M   26169.12116239  .00003630  00000+0  25517-3 0  9997
2 40975  64.7632 216.8175 0106222  54.9841 306.1189 15.02304590114361
PROPCUBE 1 (FLORA)      
1 40976U 15058N   26168.73302028  .00001776  00000+0  17540-3 0  9993
2 40976  64.7756 293.5441 0130784  60.7107 300.7001 14.89224245116342
SINOD-D 3               
1 40977U 15058P   26168.64265797  .00002465  00000+0  21502-3 0  9994
2 40977  64.7731 274.3970 0119289  57.9531 303.3103 14.94018331114822
HORYU-4                 
1 41340U 16012D   26169.06253989  .00440932  72868-4  98167-3 0  9999
2 41340  30.9844  72.5998 0005941 278.9863  81.0127 15.96640257570954
RAVAN                   
1 41849U 16067B   26168.62294488  .00041762  00000+0  62850-3 0  9995
2 41849  97.9885  58.2450 0004350  30.7045 329.4461 15.54715038527764
CELTEE 1                
1 41850U 16067C   26169.12892573  .00003910  00000+0  18683-3 0  9990
2 41850  98.0668  35.7600 0000980 126.8812 233.2511 15.19689359526021
OPTICUBE 04             
1 41851U 16067D   26168.54315751  .00002169  00000+0  13878-3 0  9990
2 41851  98.0694  20.8453 0016863 114.5788 245.7199 15.09660048525229
AEROCUBE 8D             
1 41852U 16067E   26168.87763238  .00005976  00000+0  24703-3 0  9992
2 41852  98.0674  39.1013 0004733 121.4988 238.6710 15.24405693526170
AEROCUBE 8C             
1 41853U 16067F   26169.09939763  .00006392  00000+0  26194-3 0  9995
2 41853  98.0544  36.5659 0006566  66.5233 293.6692 15.24657531526206
CORVUS BC2              
1 42846U 17042X   26168.99201708  .00003287  00000+0  22723-3 0  9995
2 42846  97.4070 330.3098 0014396 107.9527 252.3272 15.06302597487182
CORVUS BC1              
1 42847U 17042Y   26168.98653467  .00002898  00000+0  19998-3 0  9995
2 42847  97.4104 331.1194 0013417  86.8183 273.4579 15.06472044487216
MAKERSAT 0              
1 43016U 17073D   26168.63711396  .00013770  00000+0  37519-3 0  9996
2 43016  97.4617  51.1594 0105074 271.3551  87.5656 15.32110935466537
